QIANFAN-60              
1 62790U 25016F   25337.15169319  .00000048  00000+0  55107-4 0  9996
2 62790  88.9754 104.0666 0015757  17.4108 342.7580 13.50979932 45934
QIANFAN-61              
1 62791U 25016G   25337.11039030  .00000121  00000+0  16918-3 0  9997
2 62791  88.9821 104.2272 0014731  17.2170 342.9478 13.50977003 45949
QIANFAN-62              
1 62792U 25016H   25337.11448054  .00000128  00000+0  17972-3 0  9996
2 62792  88.9767 104.1005 0016098  17.0158 343.1530 13.50973478 45937
QIANFAN-63              
1 62793U 25016J   25337.13924265  .00000129  00000+0  18138-3 0  9998
2 62793  88.9774 104.0488 0016312  22.2026 337.9828 13.50980114 45971
QIANFAN-64              
1 62794U 25016K   25337.10624558  .00000122  00000+0  17027-3 0  9997
2 62794  88.9761 104.0275 0014067  16.1718 343.9879 13.50981944 45961
QIANFAN-65              
1 62795U 25016L   25337.10219296  .00000138  00000+0  19503-3 0  9995
2 62795  88.9757 104.0543 0013949  18.0243 342.1400 13.50980941 45942
QIANFAN-66              
1 62796U 25016M   25337.13094623  .00000144  00000+0  20492-3 0  9990
2 62796  88.9777 104.0197 0014919  12.9853 347.1679 13.50985006 45993
QIANFAN-67              
1 62797U 25016N   25337.13520661  .00000135  00000+0  19073-3 0  9990
2 62797  88.9767 104.0458 0015094  19.8592 340.3144 13.50977843 45963
QIANFAN-68              
1 62798U 25016P   25337.12691821  .00000140  00000+0  19855-3 0  9991
2 62798  88.9770 104.0914 0015092  18.0993 342.0692 13.50980168 45948
QIANFAN-69              
1 62799U 25016Q   25337.14343304  .00000132  00000+0  18621-3 0  9995
2 62799  88.9749 103.9612 0015880  18.8576 341.3160 13.50983150 45988
QIANFAN-70              
1 62800U 25016R   25337.15979113  .00000153  00000+0  21786-3 0  9991
2 62800  88.9770 104.0960 0015205   9.3267 350.8164 13.50973881 45941
QIANFAN-71              
1 62801U 25016S   25337.15568176  .00000129  00000+0  18089-3 0  9990
2 62801  88.9764 104.0765 0015903  22.3441 337.8400 13.50981036 45941
QIANFAN-72              
1 62802U 25016T   25337.09809322  .00000143  00000+0  20331-3 0  9994
2 62802  88.9755 104.0968 0019357  28.5805 331.6403 13.50981049 45923
QIANFAN-73              
1 63159U 25046A   25337.19915745  .00000045  00000+0  51325-4 0  9990
2 63159  88.9753 321.0108 0015842 145.3648 214.8538 13.50974673 46121
QIANFAN-74              
1 63160U 25046B   25337.10850937  .00000061  00000+0  75352-4 0  9998
2 63160  88.9754 320.9089 0001973  82.1224 278.0151 13.50976844 46178
QIANFAN-75              
1 63161U 25046C   25337.09577891  .00000090  00000+0  12010-3 0  9995
2 63161  88.9755 321.1436 0016840 148.9788 211.2361 13.50980649 46040
QIANFAN-76              
1 63162U 25046D   25337.09232264 -.00000105  00000+0 -18137-3 0  9993
2 63162  88.9752 321.1250 0014362 148.7235 211.4774 13.50962742 46059
QIANFAN-77              
1 63163U 25046E   25337.15316266  .00000198  00000+0  13448-3 0  9996
2 63163  88.9756 319.2039 0016752 107.7596 252.5410 13.96079644 47118
QIANFAN-78              
1 63164U 25046F   25337.20735992  .00000040  00000+0  43434-4 0  9999
2 63164  88.9754 320.9769 0015711 150.9528 209.2500 13.50974828 46144
QIANFAN-79              
1 63165U 25046G   25337.08790399  .00000053  00000+0  62748-4 0  9991
2 63165  88.9757 321.0964 0015442 149.5072 210.6980 13.50976272 46071
QIANFAN-80              
1 63166U 25046H   25337.10440403  .00000118  00000+0  16432-3 0  9993
2 63166  88.9755 320.8018 0014289 153.0177 207.1720 13.50973586 46237
QIANFAN-81              
1 63167U 25046J   25337.08298538  .00000128  00000+0  17859-3 0  9996
2 63167  88.9755 320.8720 0015634 142.6123 217.6119 13.50999033 46185
QIANFAN-82              
1 63168U 25046K   25337.19091175  .00000078  00000+0  10206-3 0  9990
2 63168  88.9755 320.9047 0013572 148.8319 211.3639 13.50972798 46180
QIANFAN-83              
1 63169U 25046L   25337.14816751  .00000075  00000+0  80712-4 0  9998
2 63169  88.9755 320.7043 0015270 136.2255 224.0116 13.61970880 46297
QIANFAN-84              
1 63170U 25046M   25337.14472979 -.00000016  00000+0 -43369-4 0  9994
2 63170  88.9752 321.0424 0016597 147.1437 213.0750 13.50984698 46101
QIANFAN-85              
1 63171U 25046N   25337.21547824  .00000139  00000+0  19599-3 0  9996
2 63171  88.9754 320.9066 0013961 147.7970 212.4037 13.50973073 46188
QIANFAN-86              
1 63172U 25046P   25337.14974130  .00000115  00000+0  15887-3 0  9993
2 63172  88.9757 320.7753 0011727 150.7492 209.4318 13.50973059 46254
QIANFAN-87              
1 63173U 25046Q   25337.19512278  .00000034  00000+0  33723-4 0  9990
2 63173  88.9752 320.8827 0012514 146.6698 213.5243 13.50971567 46198
QIANFAN-88              
1 63174U 25046R   25337.21149527  .00000115  00000+0  15950-3 0  9998
2 63174  88.9755 320.8353 0012679 154.3820 205.7962 13.50977682 46220
QIANFAN-89              
1 63175U 25046S   25337.10020551  .00000116  00000+0  16002-3 0  9992
2 63175  88.9755 321.0359 0017279 147.6731 212.5483 13.50973226 46108
QIANFAN-90              
1 63176U 25046T   25337.20302058  .00000030  00000+0  27319-4 0  9998
2 63176  88.9755 320.9977 0014291 144.5764 215.6339 13.50974709 46130
QIANFAN-91              
1 66033U 25233A   25336.64943284  .00000493  00000+0  34645-3 0  9992
2 66033  88.9968  63.2430 0018400  70.6140 289.7024 13.96564440  6579
QIANFAN-92              
1 66034U 25233B   25336.86839921  .00000515  00000+0  35735-3 0  9995
2 66034  88.9958  63.2257 0017897  71.4075 288.9044 13.97293156  6602
QIANFAN-93              
1 66035U 25233C   25336.93732103  .00000185  00000+0  12758-3 0  9991
2 66035  88.9971  63.2186 0017133  71.0425 289.2606 13.94885456  6613
QIANFAN-94              
1 66036U 25233D   25336.71732667  .00000436  00000+0  29974-3 0  9990
2 66036  88.9923  63.2466 0014356  80.7386 279.5414 13.97584131  6583
QIANFAN-95              
1 66037U 25233E   25337.01848580  .00000803  00000+0  37450-3 0  9993
2 66037  88.9964  63.1566 0016218  72.8672 287.4292 14.19429278  6653
QIANFAN-96              
1 66038U 25233F   25336.31057814  .00000380  00000+0  26856-3 0  9996
2 66038  88.9963  63.2922 0018426  75.2884 285.0334 13.95759606  6526
QIANFAN-97              
1 66039U 25233G   25336.51140209  .00000384  00000+0  26453-3 0  9997
2 66039  88.9966  63.2665 0017537  75.3738 284.9383 13.97240114  6551
QIANFAN-98              
1 66040U 25233H   25336.51089535  .00000119  00000+0  61107-4 0  9995
2 66040  88.9967  63.2308 0016681  72.9468 287.3542 14.08682027  6572
QIANFAN-99              
1 66041U 25233J   25336.50988336  .00000523  00000+0  36464-3 0  9998
2 66041  88.9963  63.2663 0017515  71.5789 288.7291 13.97112115  6558
QIANFAN-100             
1 66042U 25233K   25336.87323966  .00000643  00000+0  37517-3 0  9994
2 66042  88.9963  63.1912 0017348  74.7267 285.5832 14.07215185  6622
QIANFAN-101             
1 66043U 25233L   25337.19762323  .00000403  00000+0  16064-3 0  9993
2 66043  88.9966  63.1286 0016776  70.3388 289.9615 14.26666540  6689
QIANFAN-102             
1 66044U 25233M   25336.98112610  .00000322  00000+0  21239-3 0  9998
2 66044  88.9964  63.2076 0016841  74.2407 286.0628 13.99304273  6621
QIANFAN-103             
1 66045U 25233N   25337.16690462  .00000353  00000+0  25382-3 0  9993
2 66045  88.9963  63.1984 0017679  70.5030 289.8053 13.94645954  6643
QIANFAN-104             
1 66046U 25233P   25337.19517083  .00000388  00000+0  25986-3 0  9992
2 66046  88.9963  63.1843 0016549  75.6641 284.6373 13.98852158  6656
QIANFAN-105             
1 66047U 25233Q   25336.97974983  .00000152  00000+0  94501-4 0  9993
2 66047  88.9962  63.2076 0017344  71.1297 289.1760 13.99549710  6622
QIANFAN-106             
1 66048U 25233R   25337.00790628  .00000200  00000+0  13566-3 0  9996
2 66048  88.9958  63.2113 0017793  70.4943 289.8154 13.96119169  6620
QIANFAN-107             
1 66049U 25233S   25336.98528228  .00000168  00000+0  10775-3 0  9990
2 66049  88.9967  63.2075 0017320  71.7676 288.5385 13.98381105  6626
QIANFAN-108             
1 66050U 25233T   25336.99484215  .00000222  00000+0  14808-3 0  9992
2 66050  88.9962  63.2096 0016728  72.9235 287.3773 13.97513462  6621
